KEPLER-21               
1 56218U 23054AS  26068.80780274  .00079942  00000+0  58135-3 0  9999
2 56218  97.2962 342.6260 0004885  55.6816 304.4910 15.73096759163494
STARLINK-11729 [DTC]    
1 64073U 25107K   26068.50392071  .00293879  00000+0  22149-2 0  9991
2 64073  43.0001  99.8165 0001073 340.5163  19.5663 15.70827591 47265
